NORAD_CAT_ID,OBJECT_NAME,OBJECT_TYPE,EPOCH,MEAN_MOTION,ECCENTRICITY,INCLINATION,RA_OF_ASC_NODE,ARG_OF_PERICENTER,MEAN_ANOMALY,BSTAR,MEAN_MOTION_DOT,MEAN_MOTION_DDOT,TLE_LINE0,TLE_LINE1,TLE_LINE2,SEMIMAJOR_AXIS,PERIOD,APOGEE,PERIGEE,DECAYED
56798.0,STARLINK-6068,PAYLOAD,2023-09-29 13:19:58,15.69930603,0.0003183,70.0003,72.3012,269.5399,90.5432,2.9334e-05,3.317e-05,0.0,0 STARLINK-6068,1 56798U 23078AH  23272.55553912  .00003317  00000-0  29334-4 0  9995,2 56798  70.0003  72.3012 0003183 269.5399  90.5432 15.69930603 19757,6737.233,91.724,361.242,356.953,0.0
56798.0,STARLINK-6068,PAYLOAD,2023-09-29 14:51:43,15.69930876,0.0003222,70.0001,72.1221,266.5038,93.5789,2.9879e-05,3.382e-05,0.0,0 STARLINK-6068,1 56798U 23078AH  23272.61925437  .00003382  00000-0  29879-4 0  9993,2 56798  70.0001  72.1221 0003222 266.5038  93.5789 15.69930876 19352,6737.232,91.724,361.267,356.926,0.0
56798.0,STARLINK-6068,PAYLOAD,2023-09-29 19:26:58,15.69933484,0.0003153,70.0001,71.5844,265.2646,94.819,3.6513e-05,4.181e-05,0.0,0 STARLINK-6068,1 56798U 23078AH  23272.81040331  .00004181  00000-0  36513-4 0  9997,2 56798  70.0001  71.5844 0003153 265.2646  94.8190 15.69933484 19796,6737.224,91.724,361.214,356.965,0.0
56798.0,STARLINK-6068,PAYLOAD,2023-09-30 10:44:30,15.69921323,0.0003022,70.0001,69.7937,276.2979,83.7872,1.2346e-05,1.272e-05,0.0,0 STARLINK-6068,1 56798U 23078AH  23273.44757721  .00001272  00000-0  12346-4 0  9991,2 56798  70.0001  69.7937 0003022 276.2979  83.7872 15.69921323 19483,6737.259,91.724,361.16,357.088,0.0
56798.0,STARLINK-6068,PAYLOAD,2023-09-30 19:55:01,15.69932362,0.0002992,70.0007,68.7209,266.3307,93.7547,3.687e-05,4.224e-05,0.0,0 STARLINK-6068,1 56798U 23078AH  23273.82987393  .00004224  00000-0  36870-4 0  9991,2 56798  70.0007  68.7209 0002992 266.3307  93.7547 15.69932362 19542,6737.228,91.724,361.108,357.077,0.0
56798.0,STARLINK-6068,PAYLOAD,2023-10-01 12:44:17,15.69936242,0.0002336,70.0028,66.7521,276.1215,83.9714,4.5146e-05,5.222e-05,0.0,0 STARLINK-6068,1 56798U 23078AH  23274.53075669  .00005222  00000-0  45146-4 0  9999,2 56798  70.0028  66.7521 0002336 276.1215  83.9714 15.69936242 20066,6737.216,91.723,360.655,357.508,0.0
56798.0,STARLINK-6068,PAYLOAD,2023-10-01 18:51:18,15.69920238,0.0003528,70.0018,66.0328,271.5524,88.5268,4.9918e-07,-1.53e-06,0.0,0 STARLINK-6068,1 56798U 23078AH  23274.78562601 -.00000153  00000-0  49918-6 0  9995,2 56798  70.0018  66.0328 0003528 271.5524  88.5268 15.69920238 19699,6737.262,91.724,361.504,356.75,0.0
56798.0,STARLINK-6068,PAYLOAD,2023-10-01 20:23:03,15.69917815,0.0003436,70.0017,65.8532,273.6994,86.3809,-9.5217e-06,-1.357e-05,0.0,0 STARLINK-6068,1 56798U 23078AH  23274.84934442 -.00001357  00000-0 -95217-5 0  9998,2 56798  70.0017  65.8532 0003436 273.6994  86.3809 15.69917815 20117,6737.269,91.725,361.449,356.819,0.0
56798.0,STARLINK-6068,PAYLOAD,2023-10-02 19:19:19,15.69930046,0.000361,70.0,63.1675,279.4864,80.5924,2.3775e-05,2.648e-05,0.0,0 STARLINK-6068,1 56798U 23078AH  23275.80509219  .00002648  00000-0  23775-4 0  9996,2 56798  70.0000  63.1675 0003610 279.4864  80.5924 15.69930046 19856,6737.234,91.724,361.531,356.667,0.0
56798.0,STARLINK-6068,PAYLOAD,2023-10-03 12:08:36,15.69918513,0.0003368,69.9994,61.1969,277.2195,82.8617,1.3975e-05,1.468e-05,0.0,0 STARLINK-6068,1 56798U 23078AH  23276.50598163  .00001468  00000-0  13975-4 0  9990,2 56798  69.9994  61.1969 0003368 277.2195  82.8617 15.69918513 19963,6737.267,91.725,361.401,356.863,0.0
56798.0,STARLINK-6068,PAYLOAD,2023-10-03 13:40:22,15.69914303,0.0003449,69.9998,61.0177,277.7696,82.3108,3.8748e-06,2.53e-06,0.0,0 STARLINK-6068,1 56798U 23078AH  23276.56970041  .00000253  00000-0  38748-5 0  9992,2 56798  69.9998  61.0177 0003449 277.7696  82.3108 15.69914303 20389,6737.279,91.725,361.468,356.82,0.0
56798.0,STARLINK-6068,PAYLOAD,2023-10-03 19:47:21,15.6992962,0.0003825,69.998,60.3003,270.2863,89.7894,2.3873e-05,2.659e-05,0.0,0 STARLINK-6068,1 56798U 23078AH  23276.82455641  .00002659  00000-0  23873-4 0  9999,2 56798  69.9980  60.3003 0003825 270.2863  89.7894 15.69929620 20428,6737.235,91.724,361.677,356.523,0.0
56798.0,STARLINK-6068,PAYLOAD,2023-10-04 12:36:39,15.69915503,0.0003013,69.9981,58.3306,262.736,97.3493,-2.098e-06,-4.65e-06,0.0,0 STARLINK-6068,1 56798U 23078AH  23277.52545183 -.00000465  00000-0 -20980-5 0  9990,2 56798  69.9981  58.3306 0003013 262.7360  97.3493 15.69915503 20536,6737.276,91.725,361.171,357.111,0.0
56798.0,STARLINK-6068,PAYLOAD,2023-10-04 18:43:38,15.69924505,0.0003456,69.9977,57.6141,275.3014,84.7787,7.323e-06,6.68e-06,0.0,0 STARLINK-6068,1 56798U 23078AH  23277.78031119  .00000668  00000-0  73230-5 0  9996,2 56798  69.9977  57.6141 0003456 275.3014  84.7787 15.69924505 20164,6737.25,91.724,361.443,356.787,0.0
56798.0,STARLINK-6068,PAYLOAD,2023-10-05 13:04:40,15.69919754,0.0003602,69.9984,55.4654,270.2683,89.81,8.2443e-06,7.78e-06,0.0,0 STARLINK-6068,1 56798U 23078AH  23278.54491494  .00000778  00000-0  82443-5 0  9995,2 56798  69.9984  55.4654 0003602 270.2683  89.8100 15.69919754 20699,6737.264,91.724,361.555,356.702,0.0
56798.0,STARLINK-6068,PAYLOAD,2023-10-05 19:11:41,15.69918943,0.0003806,69.9974,54.7512,271.9405,88.1355,6.984e-07,-1.29e-06,0.0,0 STARLINK-6068,1 56798U 23078AH  23278.79978425 -.00000129  00000-0  69840-6 0  9994,2 56798  69.9974  54.7512 0003806 271.9405  88.1355 15.69918943 20322,6737.266,91.724,361.695,356.567,0.0
56798.0,STARLINK-6068,PAYLOAD,2023-10-06 10:29:12,15.69927733,0.0003318,69.9986,52.956,267.8207,92.2608,-3.8508e-09,-2.13e-06,0.0,0 STARLINK-6068,1 56798U 23078AH  23279.43694765 -.00000213  00000-0 -38508-8 0  9992,2 56798  69.9986  52.9560 0003318 267.8207  92.2608 15.69927733 20425,6737.241,91.724,361.341,356.87,0.0
56798.0,STARLINK-6068,PAYLOAD,2023-10-06 12:00:57,15.69927359,0.0003213,69.9989,52.7773,269.9008,90.1819,2.1921e-06,5.1e-07,0.0,0 STARLINK-6068,1 56798U 23078AH  23279.50066435  .00000051  00000-0  21921-5 0  9993,2 56798  69.9989  52.7773 0003213 269.9008  90.1819 15.69927359 20849,6737.242,91.724,361.271,356.942,0.0
56798.0,STARLINK-6068,PAYLOAD,2023-10-06 18:07:57,15.69926818,0.0003252,69.998,52.0605,271.1393,88.943,1.4091e-05,1.482e-05,0.0,0 STARLINK-6068,1 56798U 23078AH  23279.75552923  .00001482  00000-0  14091-4 0  9990,2 56798  69.9980  52.0605 0003252 271.1393  88.9430 15.69926818 20889,6737.243,91.724,361.299,356.917,0.0
56798.0,STARLINK-6068,PAYLOAD,2023-10-07 10:57:14,15.69928929,0.0002993,69.9982,50.0897,272.7279,87.3574,7.123e-07,-1.27e-06,0.0,0 STARLINK-6068,1 56798U 23078AH  23280.45641538 -.00000127  00000-0  71230-6 0  9996,2 56798  69.9982  50.0897 0002993 272.7279  87.3574 15.69928929 20587,6737.237,91.724,361.119,357.086,0.0
56798.0,STARLINK-6068,PAYLOAD,2023-10-07 12:28:59,15.69923811,0.0003028,69.9983,49.9101,274.947,85.138,-6.2089e-06,-9.59e-06,0.0,0 STARLINK-6068,1 56798U 23078AH  23280.52013633 -.00000959  00000-0 -62089-5 0  9998,2 56798  69.9983  49.9101 0003028 274.9470  85.1380 15.69923811 21004,6737.252,91.724,361.157,357.077,0.0
56798.0,STARLINK-6068,PAYLOAD,2023-10-07 18:36:00,15.6991674,0.0002899,69.9975,49.1955,267.2724,92.8139,3.4277e-06,2e-06,0.0,0 STARLINK-6068,1 56798U 23078AH  23280.77500570  .00000200  00000-0  34277-5 0  9991,2 56798  69.9975  49.1955 0002899 267.2724  92.8139 15.69916740 20634,6737.272,91.725,361.09,357.184,0.0
56798.0,STARLINK-6068,PAYLOAD,2023-10-08 09:53:30,15.69935645,0.0003656,69.9972,47.4023,265.8121,94.2657,-1.1209e-06,-3.48e-06,0.0,0 STARLINK-6068,1 56798U 23078AH  23281.41216245 -.00000348  00000-0 -11209-5 0  9991,2 56798  69.9972  47.4023 0003656 265.8121  94.2657 15.69935645 20732,6737.218,91.724,361.546,356.62,0.0
56798.0,STARLINK-6068,PAYLOAD,2023-10-08 12:57:01,15.6993651,0.0003435,69.9974,47.0448,267.9838,92.0965,-1.0868e-06,-3.44e-06,0.0,0 STARLINK-6068,1 56798U 23078AH  23281.53959517 -.00000344  00000-0 -10868-5 0  9996,2 56798  69.9974  47.0448 0003435 267.9838  92.0965 15.69936510 21162,6737.216,91.723,361.395,356.766,0.0
56798.0,STARLINK-6068,PAYLOAD,2023-10-08 17:32:16,15.69933887,0.0003431,69.9981,46.5075,270.4462,89.634,-1.0349e-06,-3.37e-06,0.0,0 STARLINK-6068,1 56798U 23078AH  23281.73074616 -.00000337  00000-0 -10349-5 0  9992,2 56798  69.9981  46.5075 0003431 270.4462  89.6340 15.69933887 21194,6737.223,91.724,361.4,356.777,0.0
56798.0,STARLINK-6068,PAYLOAD,2023-10-09 08:49:48,15.69918495,0.0003464,69.9992,44.7155,285.9715,74.1099,3.9567e-06,2.63e-06,0.0,0 STARLINK-6068,1 56798U 23078AH  23282.36792370  .00000263  00000-0  39567-5 0  9995,2 56798  69.9992  44.7155 0003464 285.9715  74.1099 15.69918495 20886,6737.267,91.725,361.466,356.798,0.0
56798.0,STARLINK-6068,PAYLOAD,2023-10-09 11:53:18,15.69921721,0.0003464,69.9998,44.3579,280.7661,79.3145,9.1936e-06,8.93e-06,0.0,0 STARLINK-6068,1 56798U 23078AH  23282.49535385  .00000893  00000-0  91936-5 0  9997,2 56798  69.9998  44.3579 0003464 280.7661  79.3145 15.69921721 21315,6737.258,91.724,361.457,356.789,0.0
56798.0,STARLINK-6068,PAYLOAD,2023-10-09 18:00:18,15.69922996,0.0003251,69.9991,43.6411,269.5165,90.5658,1.2026e-05,1.233e-05,0.0,0 STARLINK-6068,1 56798U 23078AH  23282.75021944  .00001233  00000-0  12026-4 0  9998,2 56798  69.9991  43.6411 0003251 269.5165  90.5658 15.69922996 20940,6737.254,91.724,361.31,356.929,0.0
56798.0,STARLINK-6068,PAYLOAD,2023-10-10 10:49:36,15.69908955,0.0003227,69.9985,41.6711,272.6747,87.4079,-1.0537e-05,-1.479e-05,0.0,0 STARLINK-6068,1 56798U 23078AH  23283.45111462 -.00001479  00000-0 -10537-4 0  9990,2 56798  69.9985  41.6711 0003227 272.6747  87.4079 15.69908955 21052,6737.294,91.725,361.334,356.985,0.0
56798.0,STARLINK-6068,PAYLOAD,2023-10-10 18:28:21,15.69911766,0.0002715,69.9987,40.7744,258.3552,101.734,-2.5132e-06,-5.14e-06,0.0,0 STARLINK-6068,1 56798U 23078AH  23283.76969688 -.00000514  00000-0 -25132-5 0  9992,2 56798  69.9987  40.7744 0002715 258.3552 101.7340 15.69911766 21107,6737.286,91.725,360.981,357.322,0.0
